Orbit 1
Satellite Number: 99999
Line 1: 1 99999U 20042A   26026.96137671  .00000000  00000-0  10000-4 0  9994
Line 2: 2 99999  70.0008 239.7928 0002639 276.1099 101.0153 14.99035031  1003
Keplerian Elements:
  Semi-major axis (a): 6945.958823 km
  Eccentricity (e): 0.000264
  Inclination (i): 70.000800 deg
  Argument of Perigee (ω): 276.109900 deg
  RAAN (Ω): 239.792800 deg
--------------------------------------------------
Orbit 2
Satellite Number: 64809
Line 1: 1 64809U 25150V   26027.00797700  .00009218  00000-0  77858-3 0  9995
Line 2: 2 64809  70.0000 239.5310 0003910 265.8363  94.2350 14.98364105 30271
Keplerian Elements:
  Semi-major axis (a): 6948.033453 km
  Eccentricity (e): 0.000391
  Inclination (i): 70.000000 deg
  Argument of Perigee (ω): 265.836300 deg
  RAAN (Ω): 239.531000 deg
--------------------------------------------------
Orbit 3
Satellite Number: 64799
Line 1: 1 64799U 25150K   26026.98312006  .00006283  00000-0  53413-3 0  9991
Line 2: 2 64799  70.0050 239.4463 0002593 269.7159  90.3703 14.98310101 30270
Keplerian Elements:
  Semi-major axis (a): 6948.199972 km
  Eccentricity (e): 0.000259
  Inclination (i): 70.005000 deg
  Argument of Perigee (ω): 269.715900 deg
  RAAN (Ω): 239.446300 deg
--------------------------------------------------
Orbit 4
Satellite Number: 64797
Line 1: 1 64797U 25150H   26027.00380918  .00012172  00000-0  10251-2 0  9996
Line 2: 2 64797  70.0009 239.5138 0002387 276.1103  83.9784 14.98370527 31102
Keplerian Elements:
  Semi-major axis (a): 6948.013493 km
  Eccentricity (e): 0.000239
  Inclination (i): 70.000900 deg
  Argument of Perigee (ω): 276.110300 deg
  RAAN (Ω): 239.513800 deg
--------------------------------------------------
